STARLINK-31269          
1 58844U 24017U   26040.24207055 -.00000723  00000+0 -12298-4 0  9999
2 58844  53.1602  66.5816 0001146 102.0996 258.0133 15.30200277114419
STARLINK-31264          
1 58845U 24017V   26040.25673375  .00001107  00000+0  49538-4 0  9995
2 58845  53.1600  65.9693 0001353  93.3715 266.7440 15.30184010114429
STARLINK-31273          
1 58846U 24017W   26040.21390595 -.00000433  00000+0 -24967-5 0  9995
2 58846  53.1624 336.7843 0001171 103.9224 256.1907 15.30192007115699
STARLINK-31262          
1 58847U 24017X   26040.26411733 -.00003341  00000+0 -10074-3 0  9992
2 58847  53.1595  66.0191 0001333  72.0891 288.0255 15.30194141114423
STARLINK-31238          
1 58853U 24019A   26040.04183695 -.00005828  00000+0 -20232-3 0  9999
2 58853  42.9975  50.4863 0001038 172.4493 187.6374 15.27595709114704
STARLINK-31158          
1 58854U 24019B   26040.04826339  .00002159  00000+0  87927-4 0  9996
2 58854  42.9975  50.5304 0001153 225.9878 134.0879 15.27588426114709
STARLINK-31237          
1 58855U 24019C   26040.10208712  .00029114  00000+0  10679-2 0  9991
2 58855  43.0019  50.0993 0001001 208.5282 151.5515 15.27439866114713
STARLINK-31244          
1 58856U 24019D   26040.05340253  .00021453  00000+0  78600-3 0  9990
2 58856  42.9915  50.5701 0002722 145.8396 214.2631 15.27612818114704
STARLINK-31226          
1 58858U 24019F   26040.06882488 -.00003575  00000+0 -12033-3 0  9999
2 58858  43.0010  50.6897 0001636 136.4281 223.6700 15.27603550114707
STARLINK-31197          
1 58859U 24019G   26040.08039479 -.00004095  00000+0 -13931-3 0  9992
2 58859  43.0066  50.7829 0001591 275.1204  84.9466 15.27589186114706
STARLINK-31213          
1 58860U 24019H   26040.05470104 -.00001490  00000+0 -44602-4 0  9991
2 58860  43.0066  50.5907 0002331 270.1519  89.9066 15.27576457114708
STARLINK-31199          
1 58861U 24019J   26040.05083232 -.00004773  00000+0 -16398-3 0  9991
2 58861  43.0003  50.5603 0000029 253.5119 106.5729 15.27597332114703
STARLINK-31200          
1 58862U 24019K   26040.05212896  .00003421  00000+0  13385-3 0  9992
2 58862  43.0029  50.5718 0000447 276.5279  83.5522 15.27561198114701
STARLINK-31149          
1 58863U 24019L   26040.09052752 -.00000955  00000+0 -25156-4 0  9991
2 58863  43.0044  50.0008 0001952 288.4014  71.6625 15.27579827114718
STARLINK-31242          
1 58864U 24019M   26040.05855551 -.00000864  00000+0 -21874-4 0  9998
2 58864  43.0031  50.6178 0001399 274.3565  85.7127 15.27568354114704
STARLINK-31223          
1 58865U 24019N   26040.05984202 -.00001167  00000+0 -32916-4 0  9991
2 58865  43.0006  50.6323 0000741 263.1801  96.8966 15.27565349114680
