[{"OBJECT_NAME":"STARLINK-31269","OBJECT_ID":"2024-017U","EPOCH":"2026-02-09T05:48:34.895520","MEAN_MOTION":15.30200277,"ECCENTRICITY":0.00011461,"INCLINATION":53.1602,"RA_OF_ASC_NODE":66.5816,"ARG_OF_PERICENTER":102.0996,"MEAN_ANOMALY":258.0133,"EPHEMERIS_TYPE":0,"CLASSIFICATION_TYPE":"U","NORAD_CAT_ID":58844,"ELEMENT_SET_NO":999,"REV_AT_EPOCH":11441,"BSTAR":-1.2298223e-5,"MEAN_MOTION_DOT":-7.23e-6,"MEAN_MOTION_DDOT":0},{"OBJECT_NAME":"STARLINK-31264","OBJECT_ID":"2024-017V","EPOCH":"2026-02-09T06:09:41.796000","MEAN_MOTION":15.3018401,"ECCENTRICITY":0.00013532,"INCLINATION":53.16,"RA_OF_ASC_NODE":65.9693,"ARG_OF_PERICENTER":93.3715,"MEAN_ANOMALY":266.744,"EPHEMERIS_TYPE":0,"CLASSIFICATION_TYPE":"U","NORAD_CAT_ID":58845,"ELEMENT_SET_NO":999,"REV_AT_EPOCH":11442,"BSTAR":4.9537506e-5,"MEAN_MOTION_DOT":1.107e-5,"MEAN_MOTION_DDOT":0},{"OBJECT_NAME":"STARLINK-31273","OBJECT_ID":"2024-017W","EPOCH":"2026-02-09T05:08:01.474080","MEAN_MOTION":15.30192007,"ECCENTRICITY":0.00011713,"INCLINATION":53.1624,"RA_OF_ASC_NODE":336.7843,"ARG_OF_PERICENTER":103.9224,"MEAN_ANOMALY":256.1907,"EPHEMERIS_TYPE":0,"CLASSIFICATION_TYPE":"U","NORAD_CAT_ID":58846,"ELEMENT_SET_NO":999,"REV_AT_EPOCH":11569,"BSTAR":-2.4967e-6,"MEAN_MOTION_DOT":-4.33e-6,"MEAN_MOTION_DDOT":0},{"OBJECT_NAME":"STARLINK-31262","OBJECT_ID":"2024-017X","EPOCH":"2026-02-09T06:20:19.737312","MEAN_MOTION":15.30194141,"ECCENTRICITY":0.00013334,"INCLINATION":53.1595,"RA_OF_ASC_NODE":66.0191,"ARG_OF_PERICENTER":72.0891,"MEAN_ANOMALY":288.0255,"EPHEMERIS_TYPE":0,"CLASSIFICATION_TYPE":"U","NORAD_CAT_ID":58847,"ELEMENT_SET_NO":999,"REV_AT_EPOCH":11442,"BSTAR":-0.00010074309,"MEAN_MOTION_DOT":-3.341e-5,"MEAN_MOTION_DDOT":0},{"OBJECT_NAME":"STARLINK-31238","OBJECT_ID":"2024-019A","EPOCH":"2026-02-09T01:00:14.712480","MEAN_MOTION":15.27595709,"ECCENTRICITY":0.00010381,"INCLINATION":42.9975,"RA_OF_ASC_NODE":50.4863,"ARG_OF_PERICENTER":172.4493,"MEAN_ANOMALY":187.6374,"EPHEMERIS_TYPE":0,"CLASSIFICATION_TYPE":"U","NORAD_CAT_ID":58853,"ELEMENT_SET_NO":999,"REV_AT_EPOCH":11470,"BSTAR":-0.00020232252,"MEAN_MOTION_DOT":-5.828e-5,"MEAN_MOTION_DDOT":0},{"OBJECT_NAME":"STARLINK-31158","OBJECT_ID":"2024-019B","EPOCH":"2026-02-09T01:09:29.956896","MEAN_MOTION":15.27588426,"ECCENTRICITY":0.00011536,"INCLINATION":42.9975,"RA_OF_ASC_NODE":50.5304,"ARG_OF_PERICENTER":225.9878,"MEAN_ANOMALY":134.0879,"EPHEMERIS_TYPE":0,"CLASSIFICATION_TYPE":"U","NORAD_CAT_ID":58854,"ELEMENT_SET_NO":999,"REV_AT_EPOCH":11470,"BSTAR":8.7927151e-5,"MEAN_MOTION_DOT":2.159e-5,"MEAN_MOTION_DDOT":0},{"OBJECT_NAME":"STARLINK-31237","OBJECT_ID":"2024-019C","EPOCH":"2026-02-09T02:27:00.327168","MEAN_MOTION":15.27439866,"ECCENTRICITY":0.0001001,"INCLINATION":43.0019,"RA_OF_ASC_NODE":50.0993,"ARG_OF_PERICENTER":208.5282,"MEAN_ANOMALY":151.5515,"EPHEMERIS_TYPE":0,"CLASSIFICATION_TYPE":"U","NORAD_CAT_ID":58855,"ELEMENT_SET_NO":999,"REV_AT_EPOCH":11471,"BSTAR":0.0010678769,"MEAN_MOTION_DOT":0.00029114,"MEAN_MOTION_DDOT":0},{"OBJECT_NAME":"STARLINK-31244","OBJECT_ID":"2024-019D","EPOCH":"2026-02-09T01:16:53.978592","MEAN_MOTION":15.27612818,"ECCENTRICITY":0.00027226,"INCLINATION":42.9915,"RA_OF_ASC_NODE":50.5701,"ARG_OF_PERICENTER":145.8396,"MEAN_ANOMALY":214.2631,"EPHEMERIS_TYPE":0,"CLASSIFICATION_TYPE":"U","NORAD_CAT_ID":58856,"ELEMENT_SET_NO":999,"REV_AT_EPOCH":11470,"BSTAR":0.00078599502,"MEAN_MOTION_DOT":0.00021453,"MEAN_MOTION_DDOT":0},{"OBJECT_NAME":"STARLINK-31226","OBJECT_ID":"2024-019F","EPOCH":"2026-02-09T01:39:06.469632","MEAN_MOTION":15.2760355,"ECCENTRICITY":0.00016363,"INCLINATION":43.001,"RA_OF_ASC_NODE":50.6897,"ARG_OF_PERICENTER":136.4281,"MEAN_ANOMALY":223.67,"EPHEMERIS_TYPE":0,"CLASSIFICATION_TYPE":"U","NORAD_CAT_ID":58858,"ELEMENT_SET_NO":999,"REV_AT_EPOCH":11470,"BSTAR":-0.00012033439,"MEAN_MOTION_DOT":-3.575e-5,"MEAN_MOTION_DDOT":0},{"OBJECT_NAME":"STARLINK-31197","OBJECT_ID":"2024-019G","EPOCH":"2026-02-09T01:55:46.109856","MEAN_MOTION":15.27589186,"ECCENTRICITY":0.00015912,"INCLINATION":43.0066,"RA_OF_ASC_NODE":50.7829,"ARG_OF_PERICENTER":275.1204,"MEAN_ANOMALY":84.9466,"EPHEMERIS_TYPE":0,"CLASSIFICATION_TYPE":"U","NORAD_CAT_ID":58859,"ELEMENT_SET_NO":999,"REV_AT_EPOCH":11470,"BSTAR":-0.0001393144,"MEAN_MOTION_DOT":-4.095e-5,"MEAN_MOTION_DDOT":0},{"OBJECT_NAME":"STARLINK-31213","OBJECT_ID":"2024-019H","EPOCH":"2026-02-09T01:18:46.169856","MEAN_MOTION":15.27576457,"ECCENTRICITY":0.00023319,"INCLINATION":43.0066,"RA_OF_ASC_NODE":50.5907,"ARG_OF_PERICENTER":270.1519,"MEAN_ANOMALY":89.9066,"EPHEMERIS_TYPE":0,"CLASSIFICATION_TYPE":"U","NORAD_CAT_ID":58860,"ELEMENT_SET_NO":999,"REV_AT_EPOCH":11470,"BSTAR":-4.4602465e-5,"MEAN_MOTION_DOT":-1.49e-5,"MEAN_MOTION_DDOT":0},{"OBJECT_NAME":"STARLINK-31199","OBJECT_ID":"2024-019J","EPOCH":"2026-02-09T01:13:11.912448","MEAN_MOTION":15.27597332,"ECCENTRICITY":2.96e-6,"INCLINATION":43.0003,"RA_OF_ASC_NODE":50.5603,"ARG_OF_PERICENTER":253.5119,"MEAN_ANOMALY":106.5729,"EPHEMERIS_TYPE":0,"CLASSIFICATION_TYPE":"U","NORAD_CAT_ID":58861,"ELEMENT_SET_NO":999,"REV_AT_EPOCH":11470,"BSTAR":-0.0001639786,"MEAN_MOTION_DOT":-4.773e-5,"MEAN_MOTION_DDOT":0},{"OBJECT_NAME":"STARLINK-31200","OBJECT_ID":"2024-019K","EPOCH":"2026-02-09T01:15:03.942144","MEAN_MOTION":15.27561198,"ECCENTRICITY":4.474e-5,"INCLINATION":43.0029,"RA_OF_ASC_NODE":50.5718,"ARG_OF_PERICENTER":276.5279,"MEAN_ANOMALY":83.5522,"EPHEMERIS_TYPE":0,"CLASSIFICATION_TYPE":"U","NORAD_CAT_ID":58862,"ELEMENT_SET_NO":999,"REV_AT_EPOCH":11470,"BSTAR":0.00013384699,"MEAN_MOTION_DOT":3.421e-5,"MEAN_MOTION_DDOT":0},{"OBJECT_NAME":"STARLINK-31149","OBJECT_ID":"2024-019L","EPOCH":"2026-02-09T02:10:21.577728","MEAN_MOTION":15.27579827,"ECCENTRICITY":0.0001952,"INCLINATION":43.0044,"RA_OF_ASC_NODE":50.0008,"ARG_OF_PERICENTER":288.4014,"MEAN_ANOMALY":71.6625,"EPHEMERIS_TYPE":0,"CLASSIFICATION_TYPE":"U","NORAD_CAT_ID":58863,"ELEMENT_SET_NO":999,"REV_AT_EPOCH":11471,"BSTAR":-2.5156349e-5,"MEAN_MOTION_DOT":-9.55e-6,"MEAN_MOTION_DDOT":0},{"OBJECT_NAME":"STARLINK-31242","OBJECT_ID":"2024-019M","EPOCH":"2026-02-09T01:24:19.196064","MEAN_MOTION":15.27568354,"ECCENTRICITY":0.0001399,"INCLINATION":43.0031,"RA_OF_ASC_NODE":50.6178,"ARG_OF_PERICENTER":274.3565,"MEAN_ANOMALY":85.7127,"EPHEMERIS_TYPE":0,"CLASSIFICATION_TYPE":"U","NORAD_CAT_ID":58864,"ELEMENT_SET_NO":999,"REV_AT_EPOCH":11470,"BSTAR":-2.1874303e-5,"MEAN_MOTION_DOT":-8.64e-6,"MEAN_MOTION_DDOT":0},{"OBJECT_NAME":"STARLINK-31223","OBJECT_ID":"2024-019N","EPOCH":"2026-02-09T01:26:10.350528","MEAN_MOTION":15.27565349,"ECCENTRICITY":7.415e-5,"INCLINATION":43.0006,"RA_OF_ASC_NODE":50.6323,"ARG_OF_PERICENTER":263.1801,"MEAN_ANOMALY":96.8966,"EPHEMERIS_TYPE":0,"CLASSIFICATION_TYPE":"U","NORAD_CAT_ID":58865,"ELEMENT_SET_NO":999,"REV_AT_EPOCH":11468,"BSTAR":-3.2916265e-5,"MEAN_MOTION_DOT":-1.167e-5,"MEAN_MOTION_DDOT":0}]
